{
  "type": "FeatureCollection",
  "metadata": {
    "center": {
      "lat": 17.161849,
      "lon": 78.659909
    },
    "radius_m": 500,
    "source": "OpenStreetMap",
    "attribution": "\u00a9 OpenStreetMap contributors",
    "license": "ODbL-1.0",
    "license_url": "https://opendatacommons.org/licenses/odbl/1-0/",
    "source_url": "https://api.openstreetmap.org/api/0.6/map?bbox=78.654909,17.156849,78.664909,17.166849",
    "retrieved": "2026-10-10",
    "clip": "feature geometries intersected with 500 m local metric circle centered at supplied coordinates; local equirectangular projection",
    "source_sha256": "53d91c1062b62cc88bbc5e9aea5fb96fb6325d93c3ce4a566347793cb7af7ccc"
  },
  "features": [
    {
      "type": "Feature",
      "id": "osm-way-45057665",
      "properties": {
        "kind": "road",
        "name": null,
        "osm_id": "45057665",
        "tags": {
          "highway": "primary"
        }
      },
      "geometry": {
        "type": "LineString",
        "coordinates": [
          [
            78.66267181221647,
            17.158209952302176
          ],
          [
            78.6626443,
            17.1582654
          ],
          [
            78.6624336,
            17.1586903
          ],
          [
            78.6622027,
            17.1591564
          ],
          [
            78.6620619,
            17.1594404
          ],
          [
            78.6617803,
            17.1600089
          ],
          [
            78.6614252,
            17.1607422
          ],
          [
            78.661127,
            17.1613579
          ],
          [
            78.6609508,
            17.161727
          ],
          [
            78.6604921,
            17.1626883
          ],
          [
            78.6599516,
            17.1638298
          ],
          [
            78.6597287,
            17.1642968
          ],
          [
            78.6597006,
            17.1643557
          ],
          [
            78.6593473,
            17.1650959
          ],
          [
            78.6589817,
            17.1658616
          ],
          [
            78.658810340521,
            17.166220465103862
          ]
        ]
      }
    },
    {
      "type": "Feature",
      "id": "osm-way-673612649",
      "properties": {
        "kind": "road",
        "name": null,
        "osm_id": "673612649",
        "tags": {
          "highway": "service"
        }
      },
      "geometry": {
        "type": "LineString",
        "coordinates": [
          [
            78.661127,
            17.1613579
          ],
          [
            78.6609353,
            17.1613253
          ],
          [
            78.6604545,
            17.16124
          ],
          [
            78.6598805,
            17.1611631
          ],
          [
            78.6595425,
            17.1611632
          ],
          [
            78.6594942,
            17.1611017
          ],
          [
            78.6594808,
            17.1609761
          ],
          [
            78.659521,
            17.1605917
          ],
          [
            78.6595291,
            17.1603815
          ]
        ]
      }
    },
    {
      "type": "Feature",
      "id": "osm-way-673612650",
      "properties": {
        "kind": "road",
        "name": null,
        "osm_id": "673612650",
        "tags": {
          "highway": "service"
        }
      },
      "geometry": {
        "type": "LineString",
        "coordinates": [
          [
            78.6597303,
            17.1623395
          ],
          [
            78.6597865,
            17.1620934
          ],
          [
            78.6598429,
            17.1616219
          ],
          [
            78.6598805,
            17.1611631
          ]
        ]
      }
    },
    {
      "type": "Feature",
      "id": "osm-way-673612651",
      "properties": {
        "kind": "road",
        "name": null,
        "osm_id": "673612651",
        "tags": {
          "highway": "service"
        }
      },
      "geometry": {
        "type": "LineString",
        "coordinates": [
          [
            78.6569595,
            17.1628495
          ],
          [
            78.6577722,
            17.1628725
          ],
          [
            78.6589524,
            17.1629187
          ],
          [
            78.6593547,
            17.1629289
          ]
        ]
      }
    },
    {
      "type": "Feature",
      "id": "osm-way-673612652",
      "properties": {
        "kind": "road",
        "name": null,
        "osm_id": "673612652",
        "tags": {
          "highway": "service"
        }
      },
      "geometry": {
        "type": "LineString",
        "coordinates": [
          [
            78.6571205,
            17.162055
          ],
          [
            78.6570078,
            17.1623241
          ],
          [
            78.6569434,
            17.1625855
          ],
          [
            78.6569408,
            17.1627598
          ],
          [
            78.6569595,
            17.1628495
          ],
          [
            78.6570024,
            17.162993
          ]
        ]
      }
    },
    {
      "type": "Feature",
      "id": "osm-way-673612653",
      "properties": {
        "kind": "road",
        "name": null,
        "osm_id": "673612653",
        "tags": {
          "highway": "service"
        }
      },
      "geometry": {
        "type": "LineString",
        "coordinates": [
          [
            78.6604921,
            17.1626883
          ],
          [
            78.6601701,
            17.1625368
          ],
          [
            78.6597303,
            17.1623395
          ],
          [
            78.6593252,
            17.1622242
          ],
          [
            78.6583301,
            17.1621242
          ],
          [
            78.6577079,
            17.1620729
          ],
          [
            78.6571205,
            17.162055
          ],
          [
            78.6569139,
            17.1620396
          ],
          [
            78.6567906,
            17.1620166
          ]
        ]
      }
    },
    {
      "type": "Feature",
      "id": "osm-way-1133164421",
      "properties": {
        "kind": "building",
        "name": null,
        "osm_id": "1133164421",
        "tags": {
          "building": "yes"
        }
      },
      "geometry": {
        "type": "Polygon",
        "coordinates": [
          [
            [
              78.6589712,
              17.1627418
            ],
            [
              78.6589857,
              17.1626227
            ],
            [
              78.6580174,
              17.1625151
            ],
            [
              78.6580029,
              17.1626342
            ],
            [
              78.6589712,
              17.1627418
            ]
          ]
        ]
      }
    },
    {
      "type": "Feature",
      "id": "osm-way-1133164422",
      "properties": {
        "kind": "building",
        "name": null,
        "osm_id": "1133164422",
        "tags": {
          "building": "yes"
        }
      },
      "geometry": {
        "type": "Polygon",
        "coordinates": [
          [
            [
              78.6586225,
              17.1624651
            ],
            [
              78.6586439,
              17.1622716
            ],
            [
              78.658365,
              17.1622434
            ],
            [
              78.6583436,
              17.1624369
            ],
            [
              78.6586225,
              17.1624651
            ]
          ]
        ]
      }
    },
    {
      "type": "Feature",
      "id": "osm-way-1133164423",
      "properties": {
        "kind": "building",
        "name": null,
        "osm_id": "1133164423",
        "tags": {
          "building": "yes"
        }
      },
      "geometry": {
        "type": "Polygon",
        "coordinates": [
          [
            [
              78.6582819,
              17.1624343
            ],
            [
              78.6583116,
              17.1622325
            ],
            [
              78.6581024,
              17.1622043
            ],
            [
              78.6580726,
              17.1624061
            ],
            [
              78.6582819,
              17.1624343
            ]
          ]
        ]
      }
    },
    {
      "type": "Feature",
      "id": "osm-way-1133164424",
      "properties": {
        "kind": "building",
        "name": null,
        "osm_id": "1133164424",
        "tags": {
          "building": "yes"
        }
      },
      "geometry": {
        "type": "Polygon",
        "coordinates": [
          [
            [
              78.6565284,
              17.1610513
            ],
            [
              78.6568335,
              17.1610786
            ],
            [
              78.6568489,
              17.1609214
            ],
            [
              78.6565438,
              17.1608941
            ],
            [
              78.6565284,
              17.1610513
            ]
          ]
        ]
      }
    },
    {
      "type": "Feature",
      "id": "osm-way-1133164425",
      "properties": {
        "kind": "building",
        "name": null,
        "osm_id": "1133164425",
        "tags": {
          "building": "yes"
        }
      },
      "geometry": {
        "type": "Polygon",
        "coordinates": [
          [
            [
              78.65689,
              17.160879
            ],
            [
              78.6569166,
              17.160607
            ],
            [
              78.6565409,
              17.1605734
            ],
            [
              78.6565143,
              17.1608454
            ],
            [
              78.65689,
              17.160879
            ]
          ]
        ]
      }
    },
    {
      "type": "Feature",
      "id": "osm-way-1133164426",
      "properties": {
        "kind": "building",
        "name": null,
        "osm_id": "1133164426",
        "tags": {
          "building": "yes"
        }
      },
      "geometry": {
        "type": "Polygon",
        "coordinates": [
          [
            [
              78.6578795,
              17.1619474
            ],
            [
              78.6579038,
              17.1616998
            ],
            [
              78.6572735,
              17.1616434
            ],
            [
              78.6572492,
              17.161891
            ],
            [
              78.6578795,
              17.1619474
            ]
          ]
        ]
      }
    },
    {
      "type": "Feature",
      "id": "osm-way-1133164427",
      "properties": {
        "kind": "building",
        "name": null,
        "osm_id": "1133164427",
        "tags": {
          "building": "yes"
        }
      },
      "geometry": {
        "type": "Polygon",
        "coordinates": [
          [
            [
              78.6582953,
              17.1619448
            ],
            [
              78.6583986,
              17.1610932
            ],
            [
              78.6582135,
              17.1610727
            ],
            [
              78.6581102,
              17.1619243
            ],
            [
              78.6582953,
              17.1619448
            ]
          ]
        ]
      }
    },
    {
      "type": "Feature",
      "id": "osm-way-1133164428",
      "properties": {
        "kind": "building",
        "name": null,
        "osm_id": "1133164428",
        "tags": {
          "building": "yes"
        }
      },
      "geometry": {
        "type": "Polygon",
        "coordinates": [
          [
            [
              78.658652,
              17.1620166
            ],
            [
              78.6587475,
              17.161111
            ],
            [
              78.6586215,
              17.1610956
            ],
            [
              78.6585259,
              17.1620089
            ],
            [
              78.658652,
              17.1620166
            ]
          ]
        ]
      }
    },
    {
      "type": "Feature",
      "id": "osm-way-1133164429",
      "properties": {
        "kind": "building",
        "name": null,
        "osm_id": "1133164429",
        "tags": {
          "building": "yes"
        }
      },
      "geometry": {
        "type": "Polygon",
        "coordinates": [
          [
            [
              78.6594781,
              17.1620499
            ],
            [
              78.6595035,
              17.1617621
            ],
            [
              78.6592487,
              17.1617416
            ],
            [
              78.6592233,
              17.1620294
            ],
            [
              78.6594781,
              17.1620499
            ]
          ]
        ]
      }
    },
    {
      "type": "Feature",
      "id": "osm-way-1133164430",
      "properties": {
        "kind": "building",
        "name": null,
        "osm_id": "1133164430",
        "tags": {
          "building": "yes"
        }
      },
      "geometry": {
        "type": "Polygon",
        "coordinates": [
          [
            [
              78.6595345,
              17.161504
            ],
            [
              78.6595657,
              17.1611829
            ],
            [
              78.659335,
              17.1611624
            ],
            [
              78.6593038,
              17.1614835
            ],
            [
              78.6595345,
              17.161504
            ]
          ]
        ]
      }
    },
    {
      "type": "Feature",
      "id": "osm-way-1133164431",
      "properties": {
        "kind": "building",
        "name": null,
        "osm_id": "1133164431",
        "tags": {
          "building": "yes"
        }
      },
      "geometry": {
        "type": "Polygon",
        "coordinates": [
          [
            [
              78.6597624,
              17.1620832
            ],
            [
              78.6598477,
              17.161211
            ],
            [
              78.6597056,
              17.1612059
            ],
            [
              78.659631,
              17.1620729
            ],
            [
              78.6597624,
              17.1620832
            ]
          ]
        ]
      }
    },
    {
      "type": "Feature",
      "id": "osm-way-1133164432",
      "properties": {
        "kind": "building",
        "name": null,
        "osm_id": "1133164432",
        "tags": {
          "building": "yes"
        }
      },
      "geometry": {
        "type": "Polygon",
        "coordinates": [
          [
            [
              78.6606207,
              17.1616245
            ],
            [
              78.6606523,
              17.161357
            ],
            [
              78.6601293,
              17.1613007
            ],
            [
              78.6600977,
              17.1615681
            ],
            [
              78.6606207,
              17.1616245
            ]
          ]
        ]
      }
    },
    {
      "type": "Feature",
      "id": "osm-way-1133165094",
      "properties": {
        "kind": "road",
        "name": null,
        "osm_id": "1133165094",
        "tags": {
          "highway": "residential"
        }
      },
      "geometry": {
        "type": "LineString",
        "coordinates": [
          [
            78.6621739,
            17.1655485
          ],
          [
            78.66218510068163,
            17.165783449731187
          ]
        ]
      }
    },
    {
      "type": "Feature",
      "id": "osm-way-1133165095",
      "properties": {
        "kind": "road",
        "name": null,
        "osm_id": "1133165095",
        "tags": {
          "highway": "residential"
        }
      },
      "geometry": {
        "type": "LineString",
        "coordinates": [
          [
            78.6618145,
            17.1655636
          ],
          [
            78.66183077474369,
            17.165952150543752
          ]
        ]
      }
    },
    {
      "type": "Feature",
      "id": "osm-way-1133165096",
      "properties": {
        "kind": "road",
        "name": null,
        "osm_id": "1133165096",
        "tags": {
          "highway": "residential"
        }
      },
      "geometry": {
        "type": "LineString",
        "coordinates": [
          [
            78.6614253,
            17.1655801
          ],
          [
            78.66144957537915,
            17.166096913796117
          ]
        ]
      }
    },
    {
      "type": "Feature",
      "id": "osm-way-1133165097",
      "properties": {
        "kind": "road",
        "name": null,
        "osm_id": "1133165097",
        "tags": {
          "highway": "residential"
        }
      },
      "geometry": {
        "type": "LineString",
        "coordinates": [
          [
            78.6610284,
            17.1655968
          ],
          [
            78.66106601145633,
            17.166207271491498
          ]
        ]
      }
    },
    {
      "type": "Feature",
      "id": "osm-way-1133165098",
      "properties": {
        "kind": "road",
        "name": null,
        "osm_id": "1133165098",
        "tags": {
          "highway": "residential"
        }
      },
      "geometry": {
        "type": "LineString",
        "coordinates": [
          [
            78.6599066,
            17.1656441
          ],
          [
            78.6610284,
            17.1655968
          ],
          [
            78.6614253,
            17.1655801
          ],
          [
            78.6618145,
            17.1655636
          ],
          [
            78.6621739,
            17.1655485
          ],
          [
            78.6624876,
            17.1655352
          ]
        ]
      }
    },
    {
      "type": "Feature",
      "id": "osm-way-1133165099",
      "properties": {
        "kind": "road",
        "name": null,
        "osm_id": "1133165099",
        "tags": {
          "highway": "residential"
        }
      },
      "geometry": {
        "type": "LineString",
        "coordinates": [
          [
            78.6593473,
            17.1650959
          ],
          [
            78.6598536,
            17.1652995
          ],
          [
            78.6598858,
            17.16532
          ],
          [
            78.6598992,
            17.1653507
          ],
          [
            78.6599033,
            17.1653853
          ],
          [
            78.6599066,
            17.1656441
          ],
          [
            78.6599086,
            17.1657979
          ]
        ]
      }
    },
    {
      "type": "Feature",
      "id": "osm-way-1283207822",
      "properties": {
        "kind": "road",
        "name": null,
        "osm_id": "1283207822",
        "tags": {
          "highway": "service"
        }
      },
      "geometry": {
        "type": "LineString",
        "coordinates": [
          [
            78.6589817,
            17.1658616
          ],
          [
            78.6596362,
            17.1661257
          ]
        ]
      }
    },
    {
      "type": "Feature",
      "id": "osm-way-1306367752",
      "properties": {
        "kind": "road",
        "name": null,
        "osm_id": "1306367752",
        "tags": {
          "highway": "service"
        }
      },
      "geometry": {
        "type": "LineString",
        "coordinates": [
          [
            78.6599516,
            17.1638298
          ],
          [
            78.6597155,
            17.1637328
          ],
          [
            78.6595245,
            17.1636517
          ],
          [
            78.659185,
            17.1635199
          ]
        ]
      }
    },
    {
      "type": "Feature",
      "id": "osm-way-1334317096",
      "properties": {
        "kind": "road",
        "name": null,
        "osm_id": "1334317096",
        "tags": {
          "highway": "unclassified"
        }
      },
      "geometry": {
        "type": "LineString",
        "coordinates": [
          [
            78.6626443,
            17.1582654
          ],
          [
            78.6623518,
            17.1581605
          ],
          [
            78.6622666,
            17.1581157
          ],
          [
            78.6622442,
            17.1580878
          ],
          [
            78.6622241,
            17.1580628
          ],
          [
            78.6622155,
            17.1579855
          ],
          [
            78.66217866920876,
            17.15791106910594
          ]
        ]
      }
    },
    {
      "type": "Feature",
      "id": "osm-way-1334317102",
      "properties": {
        "kind": "road",
        "name": null,
        "osm_id": "1334317102",
        "tags": {
          "highway": "unclassified"
        }
      },
      "geometry": {
        "type": "LineString",
        "coordinates": [
          [
            78.65940494755458,
            17.157379090824943
          ],
          [
            78.6594861,
            17.1576406
          ],
          [
            78.6597354,
            17.158441
          ],
          [
            78.6598454,
            17.1587735
          ]
        ]
      }
    },
    {
      "type": "Feature",
      "id": "osm-way-1334317103",
      "properties": {
        "kind": "road",
        "name": null,
        "osm_id": "1334317103",
        "tags": {
          "highway": "unclassified"
        }
      },
      "geometry": {
        "type": "LineString",
        "coordinates": [
          [
            78.65985628359142,
            17.157353634676156
          ],
          [
            78.6599074,
            17.1575201
          ],
          [
            78.6602673,
            17.1586531
          ]
        ]
      }
    },
    {
      "type": "Feature",
      "id": "osm-way-1334317104",
      "properties": {
        "kind": "road",
        "name": null,
        "osm_id": "1334317104",
        "tags": {
          "highway": "unclassified"
        }
      },
      "geometry": {
        "type": "LineString",
        "coordinates": [
          [
            78.66032169070414,
            17.157370625785124
          ],
          [
            78.6603273,
            17.1573922
          ],
          [
            78.6603296,
            17.1573993
          ],
          [
            78.6606072,
            17.1582729
          ],
          [
            78.6606812,
            17.1585041
          ]
        ]
      }
    },
    {
      "type": "Feature",
      "id": "osm-way-1334317105",
      "properties": {
        "kind": "road",
        "name": null,
        "osm_id": "1334317105",
        "tags": {
          "highway": "unclassified"
        }
      },
      "geometry": {
        "type": "LineString",
        "coordinates": [
          [
            78.66040345348321,
            17.15737795961981
          ],
          [
            78.6604035,
            17.1573781
          ],
          [
            78.6604872,
            17.157631
          ],
          [
            78.6607532,
            17.1584812
          ]
        ]
      }
    },
    {
      "type": "Feature",
      "id": "osm-way-1334317106",
      "properties": {
        "kind": "road",
        "name": null,
        "osm_id": "1334317106",
        "tags": {
          "highway": "unclassified"
        }
      },
      "geometry": {
        "type": "LineString",
        "coordinates": [
          [
            78.66088745765846,
            17.15745174450199
          ],
          [
            78.6611669,
            17.1584044
          ],
          [
            78.6612693,
            17.1586652
          ]
        ]
      }
    },
    {
      "type": "Feature",
      "id": "osm-way-1334317107",
      "properties": {
        "kind": "road",
        "name": null,
        "osm_id": "1334317107",
        "tags": {
          "highway": "unclassified"
        }
      },
      "geometry": {
        "type": "LineString",
        "coordinates": [
          [
            78.66139464158823,
            17.157583746554884
          ],
          [
            78.6614228,
            17.1577236
          ],
          [
            78.6615971,
            17.1582686
          ]
        ]
      }
    },
    {
      "type": "Feature",
      "id": "osm-way-1334317108",
      "properties": {
        "kind": "road",
        "name": null,
        "osm_id": "1334317108",
        "tags": {
          "highway": "unclassified"
        }
      },
      "geometry": {
        "type": "LineString",
        "coordinates": [
          [
            78.6622442,
            17.1580878
          ],
          [
            78.6615971,
            17.1582686
          ],
          [
            78.6611669,
            17.1584044
          ],
          [
            78.6608021,
            17.1585165
          ]
        ]
      }
    },
    {
      "type": "Feature",
      "id": "osm-way-1334317109",
      "properties": {
        "kind": "road",
        "name": null,
        "osm_id": "1334317109",
        "tags": {
          "highway": "unclassified"
        }
      },
      "geometry": {
        "type": "LineString",
        "coordinates": [
          [
            78.6615971,
            17.1582686
          ],
          [
            78.6617214,
            17.15864
          ]
        ]
      }
    },
    {
      "type": "Feature",
      "id": "osm-way-1334317110",
      "properties": {
        "kind": "road",
        "name": null,
        "osm_id": "1334317110",
        "tags": {
          "highway": "unclassified"
        }
      },
      "geometry": {
        "type": "LineString",
        "coordinates": [
          [
            78.6606812,
            17.1585041
          ],
          [
            78.6607076,
            17.1584906
          ],
          [
            78.6607282,
            17.1584841
          ],
          [
            78.6607532,
            17.1584812
          ],
          [
            78.6607786,
            17.1584917
          ],
          [
            78.6608021,
            17.1585165
          ],
          [
            78.6608175,
            17.1585464
          ],
          [
            78.6608186,
            17.1585737
          ],
          [
            78.6608095,
            17.1585978
          ],
          [
            78.6607866,
            17.1586186
          ],
          [
            78.6607534,
            17.1586372
          ],
          [
            78.6607236,
            17.1586426
          ],
          [
            78.6606961,
            17.1586339
          ],
          [
            78.6606744,
            17.1586208
          ],
          [
            78.6606606,
            17.1586022
          ],
          [
            78.6606503,
            17.1585759
          ],
          [
            78.6606492,
            17.1585519
          ],
          [
            78.6606584,
            17.1585278
          ],
          [
            78.6606812,
            17.1585041
          ]
        ]
      }
    },
    {
      "type": "Feature",
      "id": "osm-way-1334317111",
      "properties": {
        "kind": "road",
        "name": null,
        "osm_id": "1334317111",
        "tags": {
          "highway": "unclassified"
        }
      },
      "geometry": {
        "type": "LineString",
        "coordinates": [
          [
            78.6606606,
            17.1586022
          ],
          [
            78.6603676,
            17.1586492
          ],
          [
            78.6602673,
            17.1586531
          ],
          [
            78.6598454,
            17.1587735
          ],
          [
            78.6594228,
            17.1589008
          ],
          [
            78.6591942,
            17.1589697
          ],
          [
            78.6589988,
            17.1590267
          ],
          [
            78.6586646,
            17.1591243
          ],
          [
            78.6586405,
            17.1591311
          ],
          [
            78.6582732,
            17.1592349
          ],
          [
            78.6581983,
            17.1592561
          ],
          [
            78.6579117,
            17.159331
          ],
          [
            78.6577099,
            17.1593937
          ],
          [
            78.657524,
            17.1594519
          ],
          [
            78.6573702,
            17.1594917
          ],
          [
            78.6572437,
            17.1595085
          ],
          [
            78.6567375,
            17.1595682
          ],
          [
            78.6564347,
            17.1596157
          ],
          [
            78.6563738,
            17.1596295
          ],
          [
            78.6563097,
            17.1596631
          ],
          [
            78.6561732,
            17.1597132
          ],
          [
            78.6560769,
            17.1597485
          ],
          [
            78.6556697224698,
            17.159897934542485
          ]
        ]
      }
    },
    {
      "type": "Feature",
      "id": "osm-way-1334317547",
      "properties": {
        "kind": "road",
        "name": null,
        "osm_id": "1334317547",
        "tags": {
          "highway": "unclassified"
        }
      },
      "geometry": {
        "type": "LineString",
        "coordinates": [
          [
            78.6603676,
            17.1586492
          ],
          [
            78.6603261,
            17.1587052
          ],
          [
            78.6599483,
            17.1588165
          ],
          [
            78.6591101,
            17.1590533
          ],
          [
            78.6583206,
            17.159281
          ],
          [
            78.6577559,
            17.1594441
          ],
          [
            78.657462,
            17.1595204
          ],
          [
            78.6572779,
            17.1595592
          ],
          [
            78.6570815,
            17.1595838
          ],
          [
            78.6564356,
            17.1596757
          ],
          [
            78.6563611,
            17.1596873
          ],
          [
            78.6563097,
            17.1596631
          ]
        ]
      }
    },
    {
      "type": "Feature",
      "id": "osm-way-1334317548",
      "properties": {
        "kind": "road",
        "name": null,
        "osm_id": "1334317548",
        "tags": {
          "highway": "unclassified"
        }
      },
      "geometry": {
        "type": "LineString",
        "coordinates": [
          [
            78.6561732,
            17.1597132
          ],
          [
            78.656134,
            17.1615689
          ],
          [
            78.6561302,
            17.1623894
          ],
          [
            78.6561051,
            17.1633217
          ],
          [
            78.6561062,
            17.1634334
          ],
          [
            78.6561134,
            17.16364
          ]
        ]
      }
    },
    {
      "type": "Feature",
      "id": "osm-way-1334317549",
      "properties": {
        "kind": "road",
        "name": null,
        "osm_id": "1334317549",
        "tags": {
          "highway": "unclassified"
        }
      },
      "geometry": {
        "type": "LineString",
        "coordinates": [
          [
            78.6560769,
            17.1597485
          ],
          [
            78.6560737,
            17.1605669
          ],
          [
            78.6560486,
            17.1613073
          ],
          [
            78.6560459,
            17.1616844
          ],
          [
            78.6560392,
            17.1626293
          ],
          [
            78.6560329,
            17.1632378
          ],
          [
            78.6560405,
            17.1634306
          ],
          [
            78.6560486,
            17.1636365
          ]
        ]
      }
    },
    {
      "type": "Feature",
      "id": "osm-way-1334317550",
      "properties": {
        "kind": "road",
        "name": null,
        "osm_id": "1334317550",
        "tags": {
          "highway": "unclassified"
        }
      },
      "geometry": {
        "type": "LineString",
        "coordinates": [
          [
            78.6604035,
            17.1573781
          ],
          [
            78.6603296,
            17.1573993
          ],
          [
            78.6599074,
            17.1575201
          ],
          [
            78.6594861,
            17.1576406
          ],
          [
            78.659068,
            17.1577603
          ],
          [
            78.6586583,
            17.1578775
          ],
          [
            78.6586452,
            17.1578812
          ],
          [
            78.6582732,
            17.1579869
          ],
          [
            78.6579115,
            17.1580897
          ],
          [
            78.6575506,
            17.1581922
          ],
          [
            78.6573141,
            17.1582594
          ]
        ]
      }
    },
    {
      "type": "Feature",
      "id": "osm-way-1334317551",
      "properties": {
        "kind": "road",
        "name": null,
        "osm_id": "1334317551",
        "tags": {
          "highway": "unclassified"
        }
      },
      "geometry": {
        "type": "LineString",
        "coordinates": [
          [
            78.65897476217745,
            17.157442256733905
          ],
          [
            78.659068,
            17.1577603
          ],
          [
            78.6594228,
            17.1589008
          ]
        ]
      }
    },
    {
      "type": "Feature",
      "id": "osm-way-1334317552",
      "properties": {
        "kind": "road",
        "name": null,
        "osm_id": "1334317552",
        "tags": {
          "highway": "unclassified"
        }
      },
      "geometry": {
        "type": "LineString",
        "coordinates": [
          [
            78.6589988,
            17.1590267
          ],
          [
            78.6586452,
            17.1578812
          ],
          [
            78.65854505704945,
            17.15754544441485
          ]
        ]
      }
    },
    {
      "type": "Feature",
      "id": "osm-way-1334317553",
      "properties": {
        "kind": "road",
        "name": null,
        "osm_id": "1334317553",
        "tags": {
          "highway": "unclassified"
        }
      },
      "geometry": {
        "type": "LineString",
        "coordinates": [
          [
            78.65817706600664,
            17.157669239848058
          ],
          [
            78.6582732,
            17.1579869
          ],
          [
            78.6585588,
            17.1588551
          ],
          [
            78.6586405,
            17.1591311
          ]
        ]
      }
    },
    {
      "type": "Feature",
      "id": "osm-way-1334317554",
      "properties": {
        "kind": "road",
        "name": null,
        "osm_id": "1334317554",
        "tags": {
          "highway": "unclassified"
        }
      },
      "geometry": {
        "type": "LineString",
        "coordinates": [
          [
            78.6582732,
            17.1592349
          ],
          [
            78.6579115,
            17.1580897
          ]
        ]
      }
    },
    {
      "type": "Feature",
      "id": "osm-way-1334317555",
      "properties": {
        "kind": "road",
        "name": null,
        "osm_id": "1334317555",
        "tags": {
          "highway": "unclassified"
        }
      },
      "geometry": {
        "type": "LineString",
        "coordinates": [
          [
            78.6579115,
            17.1580897
          ],
          [
            78.6578275836313,
            17.15781744056799
          ]
        ]
      }
    },
    {
      "type": "Feature",
      "id": "osm-way-1334317556",
      "properties": {
        "kind": "road",
        "name": null,
        "osm_id": "1334317556",
        "tags": {
          "highway": "unclassified"
        }
      },
      "geometry": {
        "type": "LineString",
        "coordinates": [
          [
            78.65748970967397,
            17.157992054517685
          ],
          [
            78.6575506,
            17.1581922
          ],
          [
            78.6579117,
            17.159331
          ]
        ]
      }
    },
    {
      "type": "Feature",
      "id": "osm-way-1334482753",
      "properties": {
        "kind": "road",
        "name": null,
        "osm_id": "1334482753",
        "tags": {
          "highway": "unclassified"
        }
      },
      "geometry": {
        "type": "LineString",
        "coordinates": [
          [
            78.6614252,
            17.1607422
          ],
          [
            78.6608392,
            17.1605336
          ],
          [
            78.6606386,
            17.1604622
          ]
        ]
      }
    },
    {
      "type": "Feature",
      "id": "osm-way-1334482754",
      "properties": {
        "kind": "road",
        "name": null,
        "osm_id": "1334482754",
        "tags": {
          "highway": "unclassified"
        }
      },
      "geometry": {
        "type": "LineString",
        "coordinates": [
          [
            78.6606291,
            17.1611832
          ],
          [
            78.6608392,
            17.1605336
          ],
          [
            78.6609634,
            17.160152
          ],
          [
            78.6610541,
            17.1598965
          ],
          [
            78.6610971,
            17.1597596
          ],
          [
            78.661109,
            17.1596934
          ],
          [
            78.661109,
            17.1596318
          ],
          [
            78.6610875,
            17.1595451
          ],
          [
            78.6609799,
            17.1590255
          ],
          [
            78.6611802,
            17.1590027
          ]
        ]
      }
    },
    {
      "type": "Feature",
      "id": "osm-way-1334482755",
      "properties": {
        "kind": "road",
        "name": null,
        "osm_id": "1334482755",
        "tags": {
          "highway": "unclassified"
        }
      },
      "geometry": {
        "type": "LineString",
        "coordinates": [
          [
            78.6609799,
            17.1590255
          ],
          [
            78.660626,
            17.1590876
          ],
          [
            78.6605048,
            17.1591061
          ]
        ]
      }
    },
    {
      "type": "Feature",
      "id": "osm-way-1334482756",
      "properties": {
        "kind": "road",
        "name": null,
        "osm_id": "1334482756",
        "tags": {
          "highway": "unclassified"
        }
      },
      "geometry": {
        "type": "LineString",
        "coordinates": [
          [
            78.660626,
            17.1590876
          ],
          [
            78.6607399,
            17.1597325
          ]
        ]
      }
    },
    {
      "type": "Feature",
      "id": "osm-way-1334482757",
      "properties": {
        "kind": "road",
        "name": null,
        "osm_id": "1334482757",
        "tags": {
          "highway": "unclassified"
        }
      },
      "geometry": {
        "type": "LineString",
        "coordinates": [
          [
            78.6622027,
            17.1591564
          ],
          [
            78.66286,
            17.1594642
          ],
          [
            78.6629191,
            17.1594918
          ],
          [
            78.663208,
            17.1596264
          ],
          [
            78.6635494,
            17.159834
          ],
          [
            78.6638979,
            17.1600483
          ],
          [
            78.6639983,
            17.1601101
          ],
          [
            78.6641869,
            17.1602351
          ],
          [
            78.66434117627166,
            17.16033742509264
          ]
        ]
      }
    },
    {
      "type": "Feature",
      "id": "osm-way-1334482758",
      "properties": {
        "kind": "road",
        "name": null,
        "osm_id": "1334482758",
        "tags": {
          "highway": "unclassified"
        }
      },
      "geometry": {
        "type": "LineString",
        "coordinates": [
          [
            78.6620619,
            17.1594404
          ],
          [
            78.6627181,
            17.1597503
          ],
          [
            78.6628856,
            17.1598294
          ],
          [
            78.6630888,
            17.1599259
          ],
          [
            78.6632462,
            17.1600006
          ],
          [
            78.6634328,
            17.160116
          ],
          [
            78.6635781,
            17.1602059
          ],
          [
            78.663778,
            17.1603431
          ],
          [
            78.6639505,
            17.1604614
          ],
          [
            78.6640619,
            17.1605332
          ],
          [
            78.6642371,
            17.1606462
          ],
          [
            78.6643459,
            17.1607183
          ],
          [
            78.66448710028175,
            17.16081170718227
          ]
        ]
      }
    },
    {
      "type": "Feature",
      "id": "osm-way-1334482759",
      "properties": {
        "kind": "road",
        "name": null,
        "osm_id": "1334482759",
        "tags": {
          "highway": "unclassified"
        }
      },
      "geometry": {
        "type": "LineString",
        "coordinates": [
          [
            78.6642323,
            17.1616568
          ],
          [
            78.66454306911719,
            17.161072822125323
          ]
        ]
      }
    },
    {
      "type": "Feature",
      "id": "osm-way-1334482760",
      "properties": {
        "kind": "road",
        "name": null,
        "osm_id": "1334482760",
        "tags": {
          "highway": "unclassified"
        }
      },
      "geometry": {
        "type": "LineString",
        "coordinates": [
          [
            78.6639243,
            17.1615451
          ],
          [
            78.6643459,
            17.1607183
          ]
        ]
      }
    },
    {
      "type": "Feature",
      "id": "osm-way-1334482761",
      "properties": {
        "kind": "road",
        "name": null,
        "osm_id": "1334482761",
        "tags": {
          "highway": "unclassified"
        }
      },
      "geometry": {
        "type": "LineString",
        "coordinates": [
          [
            78.6635972,
            17.1613785
          ],
          [
            78.6640619,
            17.1605332
          ]
        ]
      }
    },
    {
      "type": "Feature",
      "id": "osm-way-1334482762",
      "properties": {
        "kind": "road",
        "name": null,
        "osm_id": "1334482762",
        "tags": {
          "highway": "unclassified"
        }
      },
      "geometry": {
        "type": "LineString",
        "coordinates": [
          [
            78.6633106,
            17.1612393
          ],
          [
            78.663778,
            17.1603431
          ]
        ]
      }
    },
    {
      "type": "Feature",
      "id": "osm-way-1334482763",
      "properties": {
        "kind": "road",
        "name": null,
        "osm_id": "1334482763",
        "tags": {
          "highway": "unclassified"
        }
      },
      "geometry": {
        "type": "LineString",
        "coordinates": [
          [
            78.6629438,
            17.1610381
          ],
          [
            78.6634328,
            17.160116
          ]
        ]
      }
    },
    {
      "type": "Feature",
      "id": "osm-way-1334482764",
      "properties": {
        "kind": "road",
        "name": null,
        "osm_id": "1334482764",
        "tags": {
          "highway": "unclassified"
        }
      },
      "geometry": {
        "type": "LineString",
        "coordinates": [
          [
            78.6625914,
            17.1608765
          ],
          [
            78.6630888,
            17.1599259
          ]
        ]
      }
    },
    {
      "type": "Feature",
      "id": "osm-way-1334482765",
      "properties": {
        "kind": "road",
        "name": null,
        "osm_id": "1334482765",
        "tags": {
          "highway": "unclassified"
        }
      },
      "geometry": {
        "type": "LineString",
        "coordinates": [
          [
            78.662204,
            17.1607481
          ],
          [
            78.6627181,
            17.1597503
          ]
        ]
      }
    },
    {
      "type": "Feature",
      "id": "osm-way-1334482766",
      "properties": {
        "kind": "road",
        "name": null,
        "osm_id": "1334482766",
        "tags": {
          "highway": "unclassified"
        }
      },
      "geometry": {
        "type": "LineString",
        "coordinates": [
          [
            78.66286,
            17.1594642
          ],
          [
            78.6630539,
            17.1590863
          ]
        ]
      }
    },
    {
      "type": "Feature",
      "id": "osm-way-1334482767",
      "properties": {
        "kind": "road",
        "name": null,
        "osm_id": "1334482767",
        "tags": {
          "highway": "unclassified"
        }
      },
      "geometry": {
        "type": "LineString",
        "coordinates": [
          [
            78.663208,
            17.1596264
          ],
          [
            78.6634333,
            17.1592298
          ]
        ]
      }
    },
    {
      "type": "Feature",
      "id": "osm-way-1334482768",
      "properties": {
        "kind": "road",
        "name": null,
        "osm_id": "1334482768",
        "tags": {
          "highway": "unclassified"
        }
      },
      "geometry": {
        "type": "LineString",
        "coordinates": [
          [
            78.6635494,
            17.159834
          ],
          [
            78.6638049,
            17.1593733
          ]
        ]
      }
    },
    {
      "type": "Feature",
      "id": "osm-way-1334482769",
      "properties": {
        "kind": "road",
        "name": null,
        "osm_id": "1334482769",
        "tags": {
          "highway": "unclassified"
        }
      },
      "geometry": {
        "type": "LineString",
        "coordinates": [
          [
            78.6638979,
            17.1600483
          ],
          [
            78.66406289990441,
            17.159735870484724
          ]
        ]
      }
    },
    {
      "type": "Feature",
      "id": "osm-way-1334482770",
      "properties": {
        "kind": "road",
        "name": null,
        "osm_id": "1334482770",
        "tags": {
          "highway": "unclassified"
        }
      },
      "geometry": {
        "type": "LineString",
        "coordinates": [
          [
            78.6641869,
            17.1602351
          ],
          [
            78.66425215288004,
            17.160117973503368
          ]
        ]
      }
    },
    {
      "type": "Feature",
      "id": "osm-way-1334482772",
      "properties": {
        "kind": "road",
        "name": null,
        "osm_id": "1334482772",
        "tags": {
          "highway": "unclassified"
        }
      },
      "geometry": {
        "type": "LineString",
        "coordinates": [
          [
            78.6609508,
            17.161727
          ],
          [
            78.6617721,
            17.1619075
          ],
          [
            78.6626869,
            17.162099
          ],
          [
            78.6636946,
            17.1623082
          ],
          [
            78.6641511,
            17.1624093
          ]
        ]
      }
    },
    {
      "type": "Feature",
      "id": "osm-way-1334482773",
      "properties": {
        "kind": "road",
        "name": null,
        "osm_id": "1334482773",
        "tags": {
          "highway": "unclassified"
        }
      },
      "geometry": {
        "type": "LineString",
        "coordinates": [
          [
            78.65565761818725,
            17.159920910926836
          ],
          [
            78.655643,
            17.1604886
          ],
          [
            78.6556309,
            17.1611655
          ],
          [
            78.6556327,
            17.1616747
          ],
          [
            78.655633,
            17.1617344
          ],
          [
            78.655633,
            17.1624962
          ],
          [
            78.6555991,
            17.1634317
          ]
        ]
      }
    },
    {
      "type": "Feature",
      "id": "osm-way-1334482774",
      "properties": {
        "kind": "road",
        "name": null,
        "osm_id": "1334482774",
        "tags": {
          "highway": "unclassified"
        }
      },
      "geometry": {
        "type": "LineString",
        "coordinates": [
          [
            78.6561062,
            17.1634334
          ],
          [
            78.6560405,
            17.1634306
          ],
          [
            78.6555991,
            17.1634317
          ],
          [
            78.65550513808596,
            17.163431180514642
          ]
        ]
      }
    },
    {
      "type": "Feature",
      "id": "osm-way-1334482775",
      "properties": {
        "kind": "road",
        "name": null,
        "osm_id": "1334482775",
        "tags": {
          "highway": "unclassified"
        }
      },
      "geometry": {
        "type": "LineString",
        "coordinates": [
          [
            78.6552072785227,
            17.16167692305545
          ],
          [
            78.6553254,
            17.1616779
          ],
          [
            78.6556327,
            17.1616747
          ],
          [
            78.6557356,
            17.1616736
          ],
          [
            78.6560459,
            17.1616844
          ]
        ]
      }
    },
    {
      "type": "Feature",
      "id": "osm-way-1334482777",
      "properties": {
        "kind": "road",
        "name": null,
        "osm_id": "1334482777",
        "tags": {
          "highway": "unclassified"
        }
      },
      "geometry": {
        "type": "LineString",
        "coordinates": [
          [
            78.6557981713734,
            17.16403550608688
          ],
          [
            78.6560767,
            17.1640381
          ]
        ]
      }
    },
    {
      "type": "Feature",
      "id": "osm-way-1334482778",
      "properties": {
        "kind": "road",
        "name": null,
        "osm_id": "1334482778",
        "tags": {
          "highway": "unclassified"
        }
      },
      "geometry": {
        "type": "LineString",
        "coordinates": [
          [
            78.6560767,
            17.1640381
          ],
          [
            78.656108,
            17.1640834
          ],
          [
            78.65610468900636,
            17.164494653003615
          ]
        ]
      }
    },
    {
      "type": "Feature",
      "id": "osm-way-1334482779",
      "properties": {
        "kind": "road",
        "name": null,
        "osm_id": "1334482779",
        "tags": {
          "highway": "unclassified"
        }
      },
      "geometry": {
        "type": "LineString",
        "coordinates": [
          [
            78.65603460785098,
            17.164399575979235
          ],
          [
            78.6560445,
            17.1640986
          ],
          [
            78.6560767,
            17.1640381
          ],
          [
            78.6560806,
            17.1638354
          ]
        ]
      }
    },
    {
      "type": "Feature",
      "id": "osm-way-1334482780",
      "properties": {
        "kind": "road",
        "name": null,
        "osm_id": "1334482780",
        "tags": {
          "highway": "unclassified"
        }
      },
      "geometry": {
        "type": "LineString",
        "coordinates": [
          [
            78.6560806,
            17.1638354
          ],
          [
            78.6561195,
            17.1638298
          ],
          [
            78.6561556,
            17.163805
          ],
          [
            78.6561786,
            17.1637678
          ],
          [
            78.656183,
            17.1637292
          ],
          [
            78.6561732,
            17.1636911
          ],
          [
            78.6561527,
            17.1636647
          ],
          [
            78.6561134,
            17.16364
          ],
          [
            78.6560801,
            17.1636324
          ],
          [
            78.6560486,
            17.1636365
          ],
          [
            78.6560128,
            17.1636645
          ],
          [
            78.655994,
            17.1636975
          ],
          [
            78.6559868,
            17.1637416
          ],
          [
            78.6559926,
            17.1637802
          ],
          [
            78.656007,
            17.1638023
          ],
          [
            78.6560315,
            17.1638216
          ],
          [
            78.6560806,
            17.1638354
          ]
        ]
      }
    },
    {
      "type": "Feature",
      "id": "osm-way-1334482781",
      "properties": {
        "kind": "road",
        "name": null,
        "osm_id": "1334482781",
        "tags": {
          "highway": "unclassified"
        }
      },
      "geometry": {
        "type": "MultiLineString",
        "coordinates": [
          [
            [
              78.6561786,
              17.1637678
            ],
            [
              78.6565517,
              17.1637719
            ],
            [
              78.6570095,
              17.1637769
            ],
            [
              78.6574363,
              17.1637844
            ],
            [
              78.658063,
              17.1637954
            ],
            [
              78.6582158,
              17.1637981
            ]
          ],
          [
            [
              78.6582158,
              17.1637981
            ],
            [
              78.6582329,
              17.1638193
            ],
            [
              78.6582585,
              17.1638389
            ],
            [
              78.6582994,
              17.1638519
            ],
            [
              78.6583472,
              17.1638486
            ],
            [
              78.6583847,
              17.1638291
            ],
            [
              78.6584052,
              17.163803
            ],
            [
              78.6584154,
              17.1637639
            ],
            [
              78.6584069,
              17.1637296
            ],
            [
              78.6583881,
              17.1637084
            ],
            [
              78.6583489,
              17.1636921
            ],
            [
              78.6583011,
              17.163684
            ],
            [
              78.658267,
              17.1636872
            ],
            [
              78.658238,
              17.1637003
            ],
            [
              78.6582192,
              17.1637215
            ],
            [
              78.658209,
              17.1637492
            ],
            [
              78.6582022,
              17.1637753
            ],
            [
              78.6582158,
              17.1637981
            ]
          ]
        ]
      }
    },
    {
      "type": "Feature",
      "id": "osm-way-1334482782",
      "properties": {
        "kind": "road",
        "name": null,
        "osm_id": "1334482782",
        "tags": {
          "highway": "unclassified"
        }
      },
      "geometry": {
        "type": "LineString",
        "coordinates": [
          [
            78.6582192,
            17.1637215
          ],
          [
            78.658064,
            17.1637193
          ],
          [
            78.6569276,
            17.1637036
          ],
          [
            78.6561732,
            17.1636911
          ]
        ]
      }
    },
    {
      "type": "Feature",
      "id": "osm-way-1334482783",
      "properties": {
        "kind": "road",
        "name": null,
        "osm_id": "1334482783",
        "tags": {
          "highway": "unclassified"
        }
      },
      "geometry": {
        "type": "LineString",
        "coordinates": [
          [
            78.6584052,
            17.163803
          ],
          [
            78.6591384,
            17.1641073
          ],
          [
            78.6597006,
            17.1643557
          ]
        ]
      }
    },
    {
      "type": "Feature",
      "id": "osm-way-1334482784",
      "properties": {
        "kind": "road",
        "name": null,
        "osm_id": "1334482784",
        "tags": {
          "highway": "unclassified"
        }
      },
      "geometry": {
        "type": "LineString",
        "coordinates": [
          [
            78.6597287,
            17.1642968
          ],
          [
            78.6592394,
            17.1640798
          ],
          [
            78.6586386,
            17.1638494
          ],
          [
            78.6584154,
            17.1637639
          ]
        ]
      }
    },
    {
      "type": "Feature",
      "id": "osm-way-1334482785",
      "properties": {
        "kind": "road",
        "name": null,
        "osm_id": "1334482785",
        "tags": {
          "highway": "unclassified"
        }
      },
      "geometry": {
        "type": "LineString",
        "coordinates": [
          [
            78.6586386,
            17.1638494
          ],
          [
            78.6589019,
            17.1632709
          ]
        ]
      }
    },
    {
      "type": "Feature",
      "id": "osm-way-1334482786",
      "properties": {
        "kind": "road",
        "name": null,
        "osm_id": "1334482786",
        "tags": {
          "highway": "unclassified"
        }
      },
      "geometry": {
        "type": "LineString",
        "coordinates": [
          [
            78.658064,
            17.1637193
          ],
          [
            78.658063,
            17.1637954
          ],
          [
            78.6580488,
            17.1648804
          ]
        ]
      }
    },
    {
      "type": "Feature",
      "id": "osm-way-1334482787",
      "properties": {
        "kind": "road",
        "name": null,
        "osm_id": "1334482787",
        "tags": {
          "highway": "unclassified"
        }
      },
      "geometry": {
        "type": "LineString",
        "coordinates": [
          [
            78.6574363,
            17.1637844
          ],
          [
            78.6574275,
            17.1649811
          ]
        ]
      }
    },
    {
      "type": "Feature",
      "id": "osm-way-1334482788",
      "properties": {
        "kind": "road",
        "name": null,
        "osm_id": "1334482788",
        "tags": {
          "highway": "unclassified"
        }
      },
      "geometry": {
        "type": "LineString",
        "coordinates": [
          [
            78.6569906,
            17.1650755
          ],
          [
            78.6570095,
            17.1637769
          ]
        ]
      }
    },
    {
      "type": "Feature",
      "id": "osm-way-1334482789",
      "properties": {
        "kind": "road",
        "name": null,
        "osm_id": "1334482789",
        "tags": {
          "highway": "unclassified"
        }
      },
      "geometry": {
        "type": "LineString",
        "coordinates": [
          [
            78.6565517,
            17.1637719
          ],
          [
            78.6565472,
            17.1649832
          ]
        ]
      }
    }
  ]
}
